0 BLOCK DM-SL R/B
1 29350U 06034B   13281.38587576 -.00000162  00000-0  00000+0 0   930
2 29350 001.0055 335.3927 6372139 207.1890 289.7592 02.12150514 55241
0 BLOCK DM-SL R/B
1 29350U 06034B   13283.48190102  .00000000  00000-0  10000-3 0   955
2 29350 000.9963 335.4861 6370568 207.5560 090.5574 02.12148833 55280
0 BLOCK DM-SL R/B
1 29350U 06034B   13283.81428015 -.00000207  00000-0  00000+0 0   943
2 29350 001.0059 335.0385 6372082 208.0849 344.4072 02.12150689 55291
0 BLOCK DM-SL R/B
1 29350U 06034B   13286.65584955 -.00000240  00000-0  00000+0 0   952
2 29350 001.0064 334.6206 6372010 209.1362 354.5991 02.12151107 55352
0 BLOCK DM-SL R/B
1 29350U 06034B   13289.40081472 -.00000206  00000-0  00000+0 0   967
2 29350 001.0072 334.2186 6371837 210.1494 291.0193 02.12151326 55417
0 BLOCK DM-SL R/B
1 29350U 06034B   13290.54382260  .00000000  00000-0  10000-3 0   981
2 29350 000.9972 334.4032 6370416 210.2137 083.9827 02.12148658 55431
0 BLOCK DM-SL R/B
1 29350U 06034B   13291.76618258 -.00000168  00000-0  00000+0 0   975
2 29350 001.0079 333.8677 6371638 211.0258 297.5313 02.12151438 55465
0 BLOCK DM-SL R/B
1 29350U 06034B   13293.82434133 -.00000166  00000-0  00000+0 0   981
2 29350 001.0084 333.5470 6371501 211.8032 069.4205 02.12151480 55515
